COSMOS 2251 DEB         
1 33982U 93036FR  17345.75704138  .00000226  00000-0  61437-4 0  9996
2 33982  74.0741 106.0852 0088586 195.2177 285.5538 14.51106200466977
